{"type":"FeatureCollection","features":[{"type":"Feature","properties":{"name":"آذربایجان شرقی","osm_id":2232180},"geometry":{"type":"Polygon","coordinates":[[[45.093,38.322],[45.134,38.218],[45.238,38.176],[45.248,38.086],[45.37,37.91],[45.393,37.731],[45.522,37.61],[45.47,37.536],[45.472,37.385],[45.587,37.306],[45.688,37.29],[45.767,37.203],[45.986,37.165],[46.155,37.034],[46.194,36.941],[46.234,36.975],[46.281,36.964],[46.308,37.016],[46.44,37.101],[46.497,37.092],[46.451,37.023],[46.478,37.016],[46.689,37.036],[46.683,37.064],[46.726,37.07],[46.826,37.037],[46.849,36.929],[46.903,36.909],[46.914,36.839],[46.878,36.78],[46.998,36.745],[47.096,36.831],[47.188,36.792],[47.303,36.897],[47.492,37.0],[47.524,37.067],[47.636,37.032],[47.718,37.094],[47.768,37.077],[47.779,37.132],[47.851,37.172],[48.081,37.151],[48.15,37.221],[48.346,37.255],[48.248,37.323],[48.235,37.372],[48.167,37.419],[48.161,37.473],[48.078,37.513],[48.075,37.59],[48.019,37.617],[48.067,37.729],[48.135,37.752],[48.151,37.81],[47.999,37.895],[47.893,37.868],[47.938,37.947],[47.862,38.007],[47.86,38.147],[47.804,38.241],[47.483,38.182],[47.469,38.249],[47.399,38.238],[47.287,38.302],[47.555,38.558],[47.57,38.616],[47.566,38.644],[47.433,38.707],[47.459,38.771],[47.558,38.836],[47.57,38.87],[47.516,38.916],[47.524,38.956],[47.568,38.972],[47.501,38.999],[47.526,39.008],[47.505,39.032],[47.536,39.119],[47.481,39.273],[47.505,39.295],[47.431,39.319],[47.363,39.422],[47.315,39.369],[47.098,39.277],[47.019,39.167],[46.839,39.137],[46.753,39.026],[46.697,39.019],[46.534,38.867],[46.346,38.917],[46.148,38.842],[46.065,38.887],[45.909,38.874],[45.692,38.951],[45.615,38.942],[45.58,38.979],[45.393,38.971],[45.336,38.888],[45.277,38.868],[45.276,38.732],[45.237,38.659],[45.268,38.613],[45.259,38.554],[45.33,38.462],[45.228,38.431],[45.244,38.393],[45.106,38.329],[45.093,38.322]]]}},{"type":"Feature","properties":{"name":"آذربایجان غربی","osm_id":241593},"geometry":{"type":"Polygon","coordinates":[[[44.032,39.372],[44.108,39.284],[44.097,39.204],[44.214,39.13],[44.226,39.095],[44.191,39.075],[44.212,39.021],[44.172,38.992],[44.211,38.891],[44.315,38.809],[44.254,38.718],[44.272,38.646],[44.322,38.624],[44.3,38.394],[44.38,38.359],[44.449,38.385],[44.513,38.341],[44.402,38.252],[44.393,38.146],[44.351,38.135],[44.365,38.104],[44.311,38.073],[44.223,37.888],[44.388,37.863],[44.394,37.823],[44.448,37.807],[44.445,37.771],[44.555,37.781],[44.621,37.727],[44.568,37.645],[44.614,37.602],[44.58,37.448],[44.799,37.31],[44.815,37.278],[44.758,37.228],[44.785,37.145],[44.75,37.113],[44.807,37.044],[44.906,37.01],[44.883,36.954],[44.912,36.917],[44.904,36.861],[44.837,36.797],[44.859,36.773],[44.94,36.786],[45.057,36.703],[45.071,36.63],[45.002,36.538],[45.054,36.507],[45.082,36.425],[45.149,36.404],[45.237,36.434],[45.272,36.394],[45.261,36.301],[45.305,36.274],[45.266,36.253],[45.331,36.214],[45.327,36.14],[45.381,36.084],[45.35,35.978],[45.558,35.995],[45.588,36.042],[45.569,36.072],[45.655,36.101],[45.653,36.151],[45.697,36.205],[45.883,36.208],[45.99,36.277],[45.955,36.381],[45.992,36.429],[46.153,36.46],[46.309,36.376],[46.409,36.36],[46.465,36.42],[46.62,36.397],[46.824,36.44],[46.898,36.345],[46.974,36.336],[47.116,36.251],[47.312,36.259],[47.389,36.329],[47.465,36.319],[47.525,36.364],[47.518,36.396],[47.429,36.396],[47.37,36.432],[47.457,36.523],[47.377,36.56],[47.141,36.832],[47.037,36.801],[46.998,36.745],[46.878,36.78],[46.914,36.839],[46.908,36.899],[46.849,36.929],[46.854,37.003],[46.802,37.049],[46.706,37.072],[46.689,37.036],[46.478,37.016],[46.451,37.023],[46.497,37.092],[46.44,37.101],[46.308,37.016],[46.281,36.964],[46.234,36.975],[46.194,36.941],[46.155,37.034],[45.986,37.165],[45.767,37.203],[45.688,37.29],[45.587,37.306],[45.472,37.385],[45.47,37.536],[45.522,37.61],[45.393,37.731],[45.37,37.91],[45.248,38.086],[45.238,38.176],[45.134,38.218],[45.093,38.322],[45.244,38.393],[45.228,38.431],[45.33,38.462],[45.259,38.554],[45.268,38.613],[45.237,38.659],[45.276,38.732],[45.276,38.863],[45.453,38.993],[45.457,39.051],[45.355,39.126],[45.35,39.171],[45.304,39.166],[45.313,39.2],[45.15,39.206],[45.127,39.304],[44.94,39.46],[44.952,39.492],[44.91,39.525],[44.897,39.605],[44.822,39.611],[44.715,39.714],[44.648,39.727],[44.615,39.782],[44.467,39.684],[44.48,39.61],[44.416,39.556],[44.44,39.505],[44.408,39.471],[44.422,39.412],[44.295,39.377],[44.223,39.418],[44.13,39.39],[44.071,39.412],[44.033,39.373],[44.032,39.372]]]}},{"type":"Feature","properties":{"name":"اردبیل","osm_id":269635},"geometry":{"type":"Polygon","coordinates":[[[47.287,38.302],[47.399,38.238],[47.469,38.249],[47.483,38.182],[47.804,38.241],[47.86,38.147],[47.862,38.007],[47.938,37.947],[47.893,37.868],[47.999,37.895],[48.151,37.81],[48.135,37.752],[48.067,37.729],[48.019,37.617],[48.075,37.59],[48.078,37.513],[48.161,37.473],[48.167,37.419],[48.337,37.24],[48.413,37.248],[48.482,37.21],[48.506,37.14],[48.58,37.104],[48.738,37.186],[48.79,37.139],[48.805,37.189],[48.856,37.148],[48.918,37.171],[48.875,37.293],[48.69,37.51],[48.685,37.597],[48.612,37.652],[48.598,37.701],[48.644,37.775],[48.568,37.803],[48.56,37.899],[48.536,37.903],[48.591,37.942],[48.587,38.017],[48.639,38.053],[48.708,38.213],[48.674,38.31],[48.626,38.301],[48.577,38.356],[48.582,38.463],[48.465,38.561],[48.459,38.608],[48.31,38.608],[48.253,38.662],[48.249,38.726],[48.107,38.77],[48.021,38.838],[48.01,38.907],[48.069,38.911],[48.088,38.947],[48.271,38.967],[48.333,39.021],[48.308,39.109],[48.15,39.198],[48.13,39.271],[48.369,39.38],[48.032,39.692],[47.982,39.709],[47.917,39.661],[47.807,39.659],[47.563,39.514],[47.378,39.455],[47.363,39.422],[47.431,39.319],[47.505,39.295],[47.481,39.273],[47.536,39.119],[47.505,39.032],[47.526,39.008],[47.501,38.999],[47.568,38.972],[47.524,38.956],[47.516,38.916],[47.57,38.87],[47.558,38.836],[47.459,38.771],[47.433,38.707],[47.566,38.644],[47.57,38.616],[47.555,38.558],[47.287,38.304],[47.287,38.302]]]}},{"type":"Feature","properties":{"name":"اصفهان","osm_id":241475},"geometry":{"type":"Polygon","coordinates":[[[49.641,32.978],[49.682,32.899],[49.749,32.856],[49.731,32.808],[49.767,32.764],[50.001,32.629],[50.154,32.664],[50.326,32.528],[50.383,32.573],[50.494,32.593],[50.505,32.638],[50.458,32.661],[50.521,32.716],[50.565,32.672],[50.673,32.708],[50.887,32.696],[50.926,32.6],[51.008,32.524],[50.971,32.39],[51.144,32.288],[51.234,32.174],[51.346,32.14],[51.429,32.0],[51.412,31.862],[51.293,31.811],[51.363,31.717],[51.3,31.667],[51.292,31.513],[51.26,31.461],[51.308,31.411],[51.315,31.38],[51.285,31.367],[51.347,31.266],[51.349,31.027],[51.698,30.739],[51.807,30.713],[51.859,30.8],[51.837,30.898],[51.968,31.194],[51.937,31.413],[52.046,31.596],[52.13,31.657],[52.247,31.662],[52.394,31.548],[52.755,31.496],[52.994,31.495],[53.194,31.573],[53.177,31.641],[53.041,31.747],[53.0,31.867],[53.051,32.005],[53.012,32.514],[53.034,32.536],[53.191,32.522],[53.25,32.642],[53.303,32.654],[53.45,32.602],[54.315,32.92],[54.606,32.968],[54.736,32.957],[54.774,33.082],[54.878,33.172],[54.992,33.126],[55.223,33.324],[55.387,33.358],[55.533,33.544],[55.56,33.632],[55.5,34.0],[55.501,34.267],[55.402,34.239],[53.286,34.247],[52.88,34.267],[52.5,34.419],[52.14,34.403],[51.801,34.511],[51.147,34.439],[51.022,34.369],[51.035,34.294],[50.976,34.175],[50.928,34.159],[51.054,34.028],[51.026,33.96],[51.051,33.827],[51.024,33.786],[50.974,33.748],[50.701,33.726],[50.574,33.631],[50.454,33.635],[50.273,33.582],[50.235,33.604],[50.192,33.531],[49.984,33.492],[49.99,33.42],[49.948,33.387],[50.018,33.369],[50.0,33.306],[49.947,33.23],[49.871,33.191],[49.921,33.072],[49.837,33.05],[49.722,33.084],[49.654,33.01],[49.708,32.982],[49.641,32.979],[49.641,32.978]]]}},{"type":"Feature","properties":{"name":"البرز","osm_id":1015996},"geometry":{"type":"Polygon","coordinates":[[[50.163,35.611],[50.209,35.571],[50.202,35.527],[50.329,35.547],[50.374,35.658],[50.737,35.682],[50.898,35.722],[50.919,35.692],[50.932,35.722],[50.998,35.7],[51.026,35.739],[51.091,35.735],[51.119,35.784],[51.108,35.843],[51.183,35.923],[51.152,35.998],[51.377,35.921],[51.525,36.082],[51.432,36.16],[51.331,36.154],[51.249,36.173],[51.249,36.21],[50.999,36.249],[50.919,36.287],[50.881,36.351],[50.816,36.303],[50.7,36.322],[50.659,36.286],[50.471,36.32],[50.419,36.29],[50.433,36.239],[50.676,36.107],[50.603,36.097],[50.547,36.02],[50.414,36.002],[50.286,35.784],[50.253,35.779],[50.242,35.644],[50.163,35.611]]]}},{"type":"Feature","properties":{"name":"ایلام","osm_id":229766},"geometry":{"type":"Polygon","coordinates":[[[45.693,33.691],[45.772,33.637],[45.753,33.593],[45.907,33.638],[45.961,33.561],[45.863,33.493],[46.007,33.508],[46.081,33.352],[46.19,33.264],[46.181,33.206],[46.212,33.197],[46.125,33.117],[46.053,33.128],[46.04,33.095],[46.165,33.069],[46.099,33.02],[46.102,32.978],[46.447,32.933],[46.721,32.786],[46.887,32.632],[47.168,32.457],[47.283,32.496],[47.38,32.473],[47.465,32.391],[47.435,32.352],[47.463,32.314],[47.519,32.305],[47.5,32.278],[47.567,32.225],[47.529,32.142],[47.651,32.083],[47.662,32.049],[47.81,32.116],[47.985,32.264],[47.972,32.327],[48.036,32.355],[48.016,32.523],[47.943,32.517],[47.944,32.562],[47.901,32.568],[47.933,32.582],[47.915,32.603],[47.989,32.613],[47.91,32.721],[47.939,32.762],[48.01,32.779],[47.994,32.844],[47.81,32.972],[47.592,33.045],[47.4,33.198],[47.232,33.248],[47.147,33.338],[47.009,33.387],[47.01,33.437],[46.839,33.551],[46.865,33.579],[46.846,33.611],[46.882,33.621],[47.036,33.585],[47.021,33.631],[47.069,33.712],[47.156,33.706],[47.255,33.749],[47.408,33.739],[47.511,33.835],[47.484,33.943],[47.316,33.961],[47.387,33.861],[47.295,33.789],[47.106,33.84],[46.997,33.812],[46.979,33.744],[46.919,33.772],[46.86,33.734],[46.76,33.771],[46.725,33.742],[46.621,33.831],[46.356,33.97],[46.299,33.995],[46.278,33.951],[46.055,34.038],[45.983,33.972],[45.867,33.989],[45.854,33.927],[45.906,33.899],[45.844,33.798],[45.855,33.761],[45.711,33.69],[45.693,33.691]]]}},{"type":"Feature","properties":{"name":"بوشهر","osm_id":269575},"geometry":{"type":"MultiPolygon","coordinates":[[[[49.578,29.668],[50.131,29.084],[51.325,27.667],[52.482,26.989],[52.738,27.274],[52.811,27.328],[52.901,27.318],[52.913,27.373],[52.87,27.42],[52.563,27.625],[52.388,27.993],[52.265,28.044],[52.158,28.146],[52.054,28.428],[51.96,28.821],[51.793,29.042],[51.817,29.091],[51.674,29.234],[51.587,29.391],[51.509,29.453],[51.365,29.463],[51.321,29.498],[51.27,29.608],[51.3,29.678],[51.278,29.701],[51.0,29.783],[50.815,29.775],[50.648,29.817],[50.714,29.873],[50.642,29.937],[50.574,29.925],[50.539,29.967],[50.56,30.147],[50.417,30.182],[50.2,30.295],[50.116,30.154],[49.578,29.668]]],[[[49.945,27.991],[49.983,27.882],[50.367,27.887],[50.4,27.985],[50.343,28.127],[50.213,28.192],[50.062,28.171],[49.95,28.036],[49.945,27.991]]]]}},{"type":"Feature","properties":{"name":"تهران","osm_id":537701},"geometry":{"type":"Polygon","coordinates":[[[50.333,35.591],[50.333,35.551],[50.532,35.571],[50.961,35.449],[50.965,35.394],[50.843,35.215],[51.036,35.211],[51.53,35.078],[51.599,35.018],[51.731,34.992],[51.965,34.865],[52.04,35.046],[52.019,35.109],[51.869,35.253],[51.925,35.351],[51.93,35.559],[51.986,35.576],[52.05,35.459],[52.258,35.441],[52.38,35.337],[52.555,35.412],[52.698,35.552],[52.801,35.549],[53.157,35.804],[53.019,35.84],[52.924,35.826],[52.816,35.902],[52.7,35.859],[52.687,35.912],[52.631,35.938],[52.463,35.925],[52.237,35.77],[52.073,35.763],[51.878,35.86],[51.76,36.007],[51.553,36.102],[51.377,35.921],[51.152,35.998],[51.183,35.923],[51.108,35.843],[51.091,35.735],[51.026,35.739],[50.998,35.7],[50.932,35.722],[50.919,35.692],[50.898,35.722],[50.737,35.682],[50.374,35.658],[50.335,35.611],[50.333,35.591]]]}},{"type":"Feature","properties":{"name":"چهارمحال و بختیاری","osm_id":230033},"geometry":{"type":"Polygon","coordinates":[[[49.5,32.703],[49.905,32.325],[49.947,32.178],[50.235,31.946],[50.323,31.778],[50.387,31.73],[50.442,31.619],[50.365,31.562],[50.319,31.457],[50.342,31.434],[50.415,31.42],[50.5,31.453],[50.574,31.409],[50.64,31.428],[50.789,31.314],[50.925,31.298],[51.031,31.182],[51.149,31.15],[51.18,31.21],[51.224,31.224],[51.336,31.179],[51.347,31.266],[51.285,31.367],[51.314,31.393],[51.26,31.461],[51.292,31.513],[51.3,31.667],[51.363,31.72],[51.293,31.811],[51.412,31.862],[51.429,32.0],[51.346,32.14],[51.234,32.174],[51.144,32.288],[50.971,32.39],[51.008,32.524],[50.926,32.6],[50.887,32.696],[50.673,32.708],[50.565,32.672],[50.521,32.716],[50.458,32.661],[50.505,32.638],[50.494,32.593],[50.383,32.573],[50.326,32.528],[50.154,32.664],[49.982,32.635],[49.73,32.809],[49.6,32.79],[49.575,32.717],[49.5,32.71],[49.5,32.703]]]}},{"type":"Feature","properties":{"name":"خراسان جنوبی","osm_id":537658},"geometry":{"type":"Polygon","coordinates":[[[55.405,33.382],[55.808,32.787],[55.972,32.74],[56.221,32.594],[56.584,32.184],[56.655,32.081],[56.597,32.0],[56.602,31.925],[56.872,31.957],[57.035,31.935],[57.623,31.782],[57.751,31.701],[57.771,31.744],[57.801,31.736],[58.28,31.569],[58.692,31.226],[59.02,31.018],[59.263,30.794],[59.488,30.523],[59.698,30.588],[59.858,30.682],[59.927,30.761],[59.937,30.884],[60.012,31.009],[60.254,31.035],[60.232,31.126],[60.358,31.212],[60.666,31.225],[60.668,31.293],[60.786,31.323],[60.835,31.415],[60.858,31.479],[60.813,31.709],[60.816,32.027],[60.883,32.198],[60.815,32.481],[60.71,32.696],[60.583,33.13],[60.634,33.228],[60.866,33.421],[60.851,33.482],[60.946,33.513],[60.626,33.582],[60.547,33.731],[60.582,33.805],[60.533,34.0],[60.385,33.932],[60.333,33.952],[60.135,33.883],[60.092,33.909],[60.12,33.957],[60.092,33.973],[59.874,33.978],[59.641,34.05],[59.492,34.052],[59.376,34.117],[59.303,34.081],[59.033,34.135],[58.958,34.079],[58.848,34.113],[58.749,34.089],[58.686,34.108],[58.578,34.053],[58.512,34.09],[58.465,34.082],[58.467,34.138],[58.361,34.311],[58.259,34.312],[58.273,34.284],[58.212,34.223],[57.98,34.286],[57.883,34.344],[57.771,34.35],[57.82,34.45],[57.787,34.521],[57.841,34.582],[57.857,34.706],[57.955,34.885],[57.755,34.854],[57.761,34.914],[57.527,35.013],[57.452,35.127],[57.223,35.096],[56.956,34.982],[56.865,34.974],[56.74,34.783],[56.488,34.69],[56.228,34.71],[55.909,34.246],[55.501,34.267],[55.5,34.0],[55.56,33.632],[55.533,33.544],[55.411,33.392],[55.405,33.382]]]}},{"type":"Feature","properties":{"name":"خراسان رضوی","osm_id":537657},"geometry":{"type":"Polygon","coordinates":[[[56.222,34.745],[56.228,34.71],[56.275,34.696],[56.488,34.69],[56.74,34.783],[56.865,34.974],[56.956,34.982],[57.223,35.096],[57.452,35.127],[57.527,35.013],[57.761,34.914],[57.755,34.854],[57.955,34.885],[57.857,34.706],[57.841,34.582],[57.787,34.521],[57.82,34.45],[57.772,34.349],[57.883,34.344],[57.98,34.286],[58.212,34.223],[58.273,34.284],[58.259,34.312],[58.361,34.311],[58.467,34.138],[58.465,34.082],[58.512,34.09],[58.578,34.053],[58.686,34.108],[58.749,34.089],[58.848,34.113],[58.958,34.079],[58.997,34.122],[59.076,34.134],[59.303,34.081],[59.376,34.117],[59.492,34.052],[59.641,34.05],[59.874,33.978],[60.092,33.973],[60.12,33.957],[60.092,33.909],[60.135,33.883],[60.333,33.952],[60.415,33.941],[60.533,34.0],[60.537,34.151],[60.683,34.309],[60.918,34.305],[60.85,34.368],[60.809,34.472],[60.739,34.518],[60.849,34.542],[60.922,34.623],[61.001,34.643],[61.003,34.709],[61.075,34.844],[61.056,34.905],[61.122,35.004],[61.1,35.024],[61.117,35.074],[61.146,35.081],[61.133,35.136],[61.087,35.165],[61.118,35.21],[61.092,35.264],[61.19,35.293],[61.187,35.4],[61.277,35.52],[61.274,35.609],[61.217,35.676],[61.262,35.813],[61.245,35.897],[61.117,35.963],[61.169,35.99],[61.164,36.035],[61.231,36.118],[61.14,36.394],[61.167,36.416],[61.174,36.606],[61.145,36.646],[60.346,36.629],[60.043,37.021],[59.9,37.051],[59.772,37.125],[59.553,37.136],[59.552,37.178],[59.475,37.215],[59.483,37.248],[59.397,37.317],[59.378,37.408],[59.411,37.436],[59.353,37.528],[59.229,37.512],[59.06,37.63],[58.823,37.704],[58.804,37.667],[58.713,37.649],[58.55,37.706],[58.474,37.641],[58.388,37.627],[58.311,37.662],[58.338,37.455],[58.368,37.425],[58.309,37.343],[58.407,37.274],[58.415,37.22],[58.311,37.21],[58.314,37.169],[58.241,37.182],[58.268,37.155],[58.208,37.152],[58.173,37.097],[58.358,36.997],[58.223,36.88],[58.076,36.859],[58.128,36.768],[58.08,36.716],[58.069,36.612],[57.924,36.572],[57.49,36.769],[56.913,36.891],[56.599,36.711],[56.694,36.663],[56.769,36.683],[56.756,36.596],[56.845,36.582],[56.868,36.549],[56.725,36.345],[56.773,36.183],[56.748,36.114],[56.754,35.853],[56.909,35.743],[56.985,35.585],[57.05,35.542],[56.981,35.438],[57.052,35.315],[57.0,35.215],[56.856,35.202],[56.677,35.061],[56.488,35.029],[56.258,34.823],[56.224,34.747],[56.222,34.745]]]}},{"type":"Feature","properties":{"name":"خراسان شمالی","osm_id":225444},"geometry":{"type":"Polygon","coordinates":[[[55.869,37.323],[55.911,37.323],[55.911,37.188],[56.012,37.148],[56.035,37.026],[56.005,36.874],[56.269,36.771],[56.372,36.671],[56.618,36.654],[56.648,36.674],[56.599,36.695],[56.607,36.717],[56.913,36.891],[57.49,36.769],[57.944,36.569],[58.083,36.628],[58.08,36.716],[58.128,36.774],[58.076,36.859],[58.223,36.88],[58.352,36.977],[58.345,37.014],[58.173,37.097],[58.198,37.14],[58.268,37.155],[58.248,37.184],[58.314,37.169],[58.301,37.202],[58.402,37.214],[58.419,37.249],[58.309,37.343],[58.368,37.429],[58.338,37.455],[58.311,37.662],[58.227,37.684],[58.205,37.774],[58.028,37.806],[57.892,37.871],[57.825,37.863],[57.72,37.922],[57.512,37.919],[57.357,37.986],[57.371,38.093],[57.216,38.277],[57.012,38.187],[56.992,38.214],[56.84,38.23],[56.756,38.285],[56.614,38.241],[56.453,38.265],[56.333,38.198],[56.352,38.117],[56.335,38.077],[56.289,38.085],[56.368,38.021],[56.356,37.936],[56.294,37.873],[56.232,37.864],[56.226,37.81],[56.07,37.607],[55.995,37.366],[55.869,37.323]]]}},{"type":"Feature","properties":{"name":"خوزستان","osm_id":3661581},"geometry":{"type":"Polygon","coordinates":[[[47.664,32.049],[47.712,32.019],[47.732,31.939],[47.81,31.881],[47.805,31.843],[47.866,31.784],[47.685,31.395],[47.688,31.001],[48.035,30.998],[48.025,30.478],[48.163,30.427],[48.202,30.321],[48.273,30.335],[48.408,30.202],[48.382,30.121],[48.443,30.065],[48.46,29.994],[48.881,29.816],[49.464,29.79],[49.578,29.668],[50.139,30.176],[50.2,30.295],[50.417,30.182],[50.521,30.166],[50.521,30.39],[50.386,30.524],[50.506,30.531],[50.55,30.563],[50.534,30.6],[50.424,30.665],[50.393,30.731],[50.335,30.709],[50.254,30.756],[50.21,30.932],[50.07,30.83],[50.033,30.871],[49.956,30.877],[49.951,30.929],[49.886,30.964],[49.971,31.013],[49.948,31.075],[49.99,31.126],[49.955,31.211],[50.153,31.252],[50.247,31.306],[50.3,31.358],[50.259,31.445],[50.261,31.424],[50.323,31.46],[50.37,31.57],[50.442,31.619],[50.235,31.946],[49.947,32.178],[49.905,32.325],[49.369,32.844],[49.218,32.852],[49.007,32.915],[48.9,32.885],[48.765,32.968],[48.769,32.923],[48.716,32.891],[48.641,32.955],[48.621,32.938],[48.54,32.982],[48.39,32.965],[48.275,32.996],[48.18,32.901],[48.128,32.913],[48.098,32.806],[48.049,32.806],[48.088,32.689],[47.969,32.658],[47.955,32.635],[47.988,32.611],[47.915,32.603],[47.933,32.582],[47.901,32.568],[47.944,32.562],[47.943,32.517],[48.016,32.523],[48.036,32.355],[47.972,32.327],[47.985,32.264],[47.81,32.116],[47.664,32.049]]]}},{"type":"Feature","properties":{"name":"زنجان","osm_id":241473},"geometry":{"type":"Polygon","coordinates":[[[47.18,36.792],[47.377,36.56],[47.457,36.523],[47.375,36.456],[47.388,36.417],[47.518,36.396],[47.548,36.439],[47.596,36.431],[47.66,36.381],[47.782,36.372],[47.941,36.31],[47.942,36.213],[47.976,36.207],[48.004,36.149],[47.932,36.082],[47.953,36.048],[47.872,35.998],[47.974,35.98],[47.854,35.928],[47.896,35.88],[48.002,35.93],[48.045,35.814],[48.092,35.813],[48.312,35.673],[48.484,35.645],[48.526,35.588],[48.67,35.597],[48.747,35.647],[48.726,35.76],[48.784,35.884],[48.868,35.96],[48.901,35.971],[49.066,35.866],[49.098,35.931],[49.211,35.973],[49.313,35.96],[49.416,36.072],[49.415,36.324],[49.337,36.389],[49.138,36.419],[48.977,36.54],[49.01,36.662],[49.071,36.684],[49.107,36.762],[49.276,36.815],[49.124,37.091],[48.955,37.133],[48.915,37.173],[48.856,37.148],[48.805,37.189],[48.79,37.139],[48.738,37.186],[48.58,37.104],[48.506,37.14],[48.482,37.21],[48.397,37.249],[48.15,37.221],[48.1,37.156],[48.01,37.14],[47.851,37.172],[47.779,37.132],[47.768,37.077],[47.718,37.094],[47.636,37.032],[47.524,37.067],[47.492,37.0],[47.303,36.897],[47.184,36.792],[47.18,36.792]]]}},{"type":"Feature","properties":{"name":"سمنان","osm_id":241474},"geometry":{"type":"Polygon","coordinates":[[[51.834,34.507],[52.14,34.403],[52.5,34.419],[52.894,34.265],[54.25,34.234],[55.402,34.239],[55.521,34.272],[55.655,34.242],[55.906,34.244],[56.227,34.708],[56.258,34.823],[56.488,35.029],[56.677,35.061],[56.856,35.202],[57.0,35.215],[57.05,35.307],[56.981,35.438],[57.05,35.542],[56.985,35.585],[56.909,35.743],[56.754,35.853],[56.748,36.114],[56.773,36.183],[56.725,36.345],[56.858,36.511],[56.864,36.561],[56.756,36.596],[56.769,36.683],[56.498,36.648],[56.462,36.684],[56.372,36.671],[56.269,36.771],[56.005,36.874],[56.035,37.026],[56.006,37.162],[55.911,37.188],[55.911,37.323],[55.809,37.318],[55.745,37.285],[55.721,37.2],[55.621,37.099],[55.56,36.925],[55.401,36.817],[55.01,36.767],[54.823,36.61],[54.657,36.623],[54.544,36.518],[54.176,36.506],[54.061,36.469],[54.005,36.403],[53.913,36.403],[53.883,36.363],[53.97,36.292],[53.935,36.248],[53.64,36.089],[53.359,36.057],[53.245,35.991],[53.237,35.907],[53.1,35.916],[53.068,35.882],[53.102,35.862],[53.021,35.836],[53.14,35.818],[53.153,35.792],[52.899,35.642],[52.801,35.549],[52.667,35.536],[52.536,35.402],[52.379,35.337],[52.258,35.441],[52.05,35.459],[51.986,35.576],[51.93,35.559],[51.925,35.351],[51.869,35.253],[52.019,35.109],[52.04,35.046],[51.834,34.508],[51.834,34.507]]]}},{"type":"Feature","properties":{"name":"سیستان و بلوچستان","osm_id":537693},"geometry":{"type":"Polygon","coordinates":[[[58.797,26.445],[58.881,26.354],[58.817,26.243],[59.021,26.195],[58.993,26.076],[59.076,25.991],[59.024,25.975],[59.004,25.92],[59.077,25.889],[59.215,25.704],[59.236,25.637],[59.21,25.558],[59.219,25.199],[59.619,25.189],[60.576,25.072],[61.362,24.864],[61.582,24.835],[61.672,25.648],[61.736,25.742],[61.798,25.718],[61.84,25.745],[61.852,25.816],[61.82,25.849],[61.892,25.889],[61.832,25.911],[61.818,25.967],[61.897,26.262],[61.961,26.26],[62.033,26.334],[62.125,26.274],[62.215,26.268],[62.228,26.33],[62.272,26.328],[62.258,26.446],[62.307,26.463],[62.303,26.508],[62.421,26.533],[62.445,26.567],[62.604,26.576],[62.795,26.651],[63.049,26.628],[63.197,26.647],[63.186,26.837],[63.246,26.85],[63.251,27.092],[63.333,27.118],[63.283,27.213],[63.188,27.261],[62.937,27.201],[62.776,27.253],[62.825,27.299],[62.791,27.339],[62.848,27.463],[62.829,27.764],[62.763,28.007],[62.793,28.279],[62.597,28.248],[62.489,28.373],[62.389,28.432],[61.91,28.564],[61.663,28.784],[61.542,28.99],[61.479,29.024],[61.507,29.062],[61.474,29.123],[61.421,29.136],[61.43,29.199],[61.353,29.276],[61.36,29.378],[61.125,29.533],[61.082,29.633],[60.873,29.859],[61.803,30.835],[61.782,30.915],[61.836,30.976],[61.832,31.088],[61.772,31.206],[61.778,31.302],[61.707,31.376],[60.856,31.487],[60.786,31.323],[60.668,31.293],[60.666,31.225],[60.358,31.212],[60.232,31.126],[60.254,31.035],[60.012,31.009],[59.937,30.884],[59.927,30.761],[59.858,30.682],[59.698,30.588],[59.483,30.528],[59.425,30.253],[59.457,29.461],[59.485,29.276],[59.571,29.082],[59.497,28.961],[59.508,28.711],[59.531,28.625],[59.725,28.487],[59.71,28.439],[59.637,28.4],[59.443,28.398],[59.416,28.345],[59.478,28.287],[59.531,28.312],[59.596,28.296],[59.605,28.268],[59.483,28.086],[59.581,28.014],[59.327,28.014],[59.243,27.933],[59.157,27.907],[59.087,28.019],[58.96,28.092],[58.936,28.058],[58.89,27.898],[58.901,27.576],[58.831,27.254],[58.849,27.102],[58.913,27.0],[58.85,26.833],[58.99,26.759],[59.018,26.656],[59.0,26.596],[59.037,26.548],[59.0,26.5],[58.905,26.513],[58.798,26.445],[58.797,26.445]]]}},{"type":"Feature","properties":{"name":"فارس","osm_id":255446},"geometry":{"type":"Polygon","coordinates":[[[50.603,29.944],[50.714,29.873],[50.644,29.827],[50.704,29.792],[51.0,29.783],[51.297,29.687],[51.27,29.61],[51.321,29.498],[51.552,29.425],[51.674,29.234],[51.817,29.091],[51.793,29.042],[51.96,28.821],[52.125,28.2],[52.265,28.044],[52.388,27.993],[52.563,27.625],[52.913,27.373],[53.338,27.208],[53.416,27.107],[53.537,27.092],[53.581,27.14],[53.752,27.069],[53.844,27.071],[53.964,27.146],[53.882,27.239],[53.895,27.284],[54.266,27.47],[54.414,27.451],[54.719,27.474],[54.882,27.431],[55.229,27.417],[55.403,27.686],[55.482,27.713],[55.568,27.799],[55.733,27.829],[55.677,27.907],[55.679,27.969],[55.481,27.981],[55.382,28.027],[55.419,28.126],[55.408,28.457],[55.455,28.54],[55.386,28.633],[55.253,28.714],[55.269,28.799],[55.212,28.903],[55.167,28.922],[55.226,28.941],[55.035,29.028],[55.027,29.271],[54.979,29.397],[54.777,29.602],[54.634,29.596],[54.491,29.635],[54.266,29.6],[54.207,29.632],[54.097,29.789],[54.117,29.969],[53.93,30.059],[53.87,30.166],[53.904,30.162],[53.914,30.203],[53.88,30.225],[53.919,30.223],[53.937,30.378],[53.926,30.487],[53.862,30.63],[53.735,30.689],[53.471,30.732],[53.364,30.833],[52.943,31.012],[52.912,31.121],[52.832,31.191],[52.956,31.251],[52.969,31.362],[52.801,31.495],[52.381,31.552],[52.237,31.664],[52.144,31.661],[52.073,31.617],[51.937,31.413],[51.968,31.194],[51.837,30.898],[51.859,30.8],[51.798,30.693],[51.888,30.591],[51.783,30.372],[51.751,30.361],[51.619,30.444],[51.575,30.422],[51.392,30.468],[51.355,30.506],[51.372,30.555],[51.193,30.674],[51.136,30.596],[51.289,30.389],[51.238,30.336],[51.269,30.28],[51.178,30.206],[50.956,30.156],[50.847,29.966],[50.687,29.996],[50.609,29.952],[50.603,29.944]]]}},{"type":"Feature","properties":{"name":"قزوین","osm_id":241471},"geometry":{"type":"Polygon","coordinates":[[[48.724,35.751],[48.736,35.724],[48.791,35.731],[49.048,35.628],[49.161,35.493],[49.4,35.445],[49.489,35.391],[49.682,35.447],[49.699,35.534],[49.801,35.508],[49.88,35.547],[49.992,35.504],[50.202,35.527],[50.209,35.571],[50.165,35.619],[50.242,35.644],[50.253,35.779],[50.286,35.784],[50.414,36.002],[50.547,36.02],[50.603,36.097],[50.676,36.107],[50.433,36.239],[50.419,36.29],[50.475,36.321],[50.628,36.287],[50.7,36.322],[50.816,36.303],[50.882,36.35],[50.64,36.524],[50.437,36.565],[50.266,36.684],[50.078,36.679],[50.052,36.609],[49.919,36.627],[49.88,36.555],[49.737,36.557],[49.67,36.603],[49.479,36.611],[49.48,36.643],[49.286,36.812],[49.183,36.769],[49.133,36.78],[49.071,36.684],[49.01,36.662],[48.977,36.54],[49.138,36.419],[49.337,36.389],[49.415,36.324],[49.416,36.072],[49.313,35.96],[49.211,35.973],[49.098,35.931],[49.065,35.866],[48.886,35.97],[48.784,35.884],[48.725,35.757],[48.724,35.751]]]}},{"type":"Feature","properties":{"name":"قم","osm_id":537702},"geometry":{"type":"Polygon","coordinates":[[[50.086,34.584],[50.157,34.509],[50.148,34.473],[50.335,34.442],[50.442,34.201],[50.517,34.19],[50.677,34.238],[50.953,34.16],[51.035,34.294],[51.022,34.369],[51.127,34.433],[51.834,34.506],[51.965,34.865],[51.731,34.992],[51.599,35.018],[51.53,35.078],[51.036,35.211],[50.843,35.215],[50.847,35.171],[50.652,35.014],[50.705,34.868],[50.489,34.86],[50.409,34.752],[50.341,34.76],[50.268,34.814],[50.167,34.82],[50.122,34.756],[50.086,34.586],[50.086,34.584]]]}},{"type":"Feature","properties":{"name":"کردستان","osm_id":241546},"geometry":{"type":"Polygon","coordinates":[[[45.558,36.013],[45.764,35.799],[45.8,35.827],[45.875,35.811],[45.896,35.838],[45.954,35.823],[46.079,35.858],[46.168,35.8],[46.295,35.836],[46.34,35.82],[46.333,35.763],[46.277,35.729],[46.165,35.689],[46.035,35.705],[45.993,35.635],[46.03,35.577],[45.971,35.58],[46.018,35.521],[45.985,35.496],[46.068,35.369],[46.205,35.245],[46.365,35.167],[46.447,35.104],[46.448,35.07],[46.525,35.041],[46.551,34.9],[46.714,34.837],[46.788,34.737],[46.949,34.769],[47.05,34.75],[47.058,34.791],[47.141,34.8],[47.07,34.892],[47.172,34.9],[47.174,34.963],[47.196,34.931],[47.241,34.954],[47.261,34.924],[47.318,34.939],[47.298,34.999],[47.4,35.062],[47.729,35.062],[47.884,34.927],[47.953,34.971],[48.043,34.986],[48.086,34.962],[48.176,34.999],[48.192,35.093],[48.153,35.118],[48.181,35.165],[48.14,35.222],[48.096,35.228],[48.027,35.371],[47.945,35.39],[47.881,35.561],[47.976,35.595],[48.006,35.644],[48.29,35.686],[48.092,35.813],[48.045,35.814],[48.002,35.93],[47.896,35.88],[47.854,35.928],[47.972,35.971],[47.872,35.998],[47.953,36.048],[47.932,36.082],[48.004,36.149],[47.976,36.207],[47.942,36.213],[47.941,36.31],[47.899,36.331],[47.66,36.381],[47.548,36.439],[47.512,36.415],[47.525,36.364],[47.465,36.319],[47.389,36.329],[47.293,36.256],[47.116,36.251],[46.974,36.336],[46.898,36.345],[46.824,36.44],[46.62,36.397],[46.465,36.42],[46.409,36.36],[46.309,36.376],[46.153,36.46],[45.992,36.429],[45.955,36.386],[45.977,36.265],[45.85,36.196],[45.697,36.205],[45.653,36.151],[45.655,36.101],[45.569,36.072],[45.568,36.019],[45.558,36.013]]]}},{"type":"Feature","properties":{"name":"کرمان","osm_id":229593},"geometry":{"type":"Polygon","coordinates":[[[54.37,30.393],[54.433,30.312],[54.53,30.259],[54.588,29.613],[54.805,29.591],[54.979,29.397],[55.027,29.271],[55.035,29.028],[55.226,28.941],[55.167,28.922],[55.212,28.903],[55.269,28.751],[55.501,28.75],[55.733,28.659],[56.043,28.789],[56.06,28.584],[55.923,28.558],[55.911,28.531],[55.993,28.509],[56.01,28.39],[56.058,28.389],[56.158,28.228],[56.327,28.158],[56.576,28.139],[56.627,28.157],[56.711,28.269],[56.978,28.275],[57.015,28.18],[57.022,27.925],[57.144,27.939],[57.222,27.888],[57.299,27.963],[57.476,27.794],[57.401,27.776],[57.356,27.704],[57.283,27.716],[57.283,27.667],[57.222,27.62],[57.238,27.588],[57.34,27.566],[57.331,27.406],[57.477,27.267],[57.515,27.089],[57.914,26.924],[58.137,26.776],[58.327,26.73],[58.459,26.653],[58.5,26.686],[58.793,26.446],[58.905,26.513],[59.002,26.501],[59.037,26.551],[59.0,26.596],[59.018,26.656],[58.99,26.759],[58.85,26.833],[58.913,27.0],[58.849,27.102],[58.831,27.254],[58.901,27.576],[58.9,27.961],[58.96,28.092],[59.087,28.019],[59.157,27.907],[59.243,27.933],[59.327,28.014],[59.581,28.014],[59.483,28.086],[59.605,28.268],[59.596,28.296],[59.531,28.312],[59.478,28.287],[59.416,28.345],[59.443,28.398],[59.637,28.4],[59.71,28.439],[59.725,28.487],[59.531,28.625],[59.508,28.711],[59.497,28.961],[59.571,29.082],[59.485,29.276],[59.457,29.461],[59.425,30.253],[59.483,30.528],[59.263,30.794],[59.02,31.018],[58.692,31.226],[58.588,31.335],[58.453,31.406],[58.335,31.535],[58.224,31.594],[57.771,31.744],[57.751,31.701],[57.623,31.782],[57.035,31.935],[56.872,31.957],[56.673,31.939],[56.602,31.925],[56.57,31.698],[56.269,31.592],[56.249,31.559],[56.161,31.553],[56.121,31.591],[56.035,31.57],[56.013,31.465],[55.938,31.377],[55.74,31.275],[54.946,31.028],[54.712,31.066],[54.527,31.018],[54.565,30.61],[54.446,30.455],[54.37,30.393]]]}},{"type":"Feature","properties":{"name":"کرمانشاه","osm_id":241037},"geometry":{"type":"Polygon","coordinates":[[[45.408,33.977],[45.432,33.946],[45.512,33.946],[45.689,33.691],[45.855,33.761],[45.844,33.798],[45.906,33.899],[45.854,33.927],[45.867,33.989],[45.983,33.972],[46.055,34.038],[46.278,33.951],[46.299,33.995],[46.356,33.97],[46.621,33.831],[46.725,33.742],[46.76,33.771],[46.86,33.734],[46.919,33.772],[46.979,33.744],[46.997,33.812],[47.106,33.84],[47.295,33.789],[47.387,33.861],[47.316,33.961],[47.498,33.946],[47.424,34.065],[47.432,34.096],[47.504,34.095],[47.534,34.163],[47.512,34.187],[47.565,34.182],[47.694,34.276],[47.693,34.374],[47.828,34.324],[47.887,34.255],[47.994,34.365],[47.99,34.401],[48.044,34.39],[48.086,34.418],[48.101,34.53],[48.047,34.623],[47.999,34.587],[47.866,34.633],[47.865,34.722],[47.797,34.851],[47.864,34.858],[47.928,34.929],[47.84,34.939],[47.803,35.015],[47.729,35.062],[47.361,35.053],[47.36,35.022],[47.29,34.987],[47.318,34.939],[47.261,34.924],[47.241,34.954],[47.196,34.931],[47.174,34.963],[47.172,34.9],[47.07,34.892],[47.141,34.8],[47.058,34.791],[47.05,34.75],[46.949,34.769],[46.788,34.737],[46.714,34.837],[46.551,34.9],[46.525,35.041],[46.159,35.285],[46.116,35.244],[46.202,35.201],[46.155,35.159],[46.191,35.111],[46.072,35.083],[46.059,35.038],[45.922,35.096],[45.931,35.045],[45.877,35.032],[45.897,34.96],[45.865,34.896],[45.788,34.912],[45.792,34.853],[45.69,34.815],[45.699,34.77],[45.653,34.723],[45.703,34.694],[45.743,34.538],[45.595,34.55],[45.531,34.602],[45.521,34.481],[45.44,34.459],[45.496,34.337],[45.538,34.352],[45.584,34.303],[45.555,34.195],[45.582,34.146],[45.474,34.076],[45.467,34.01],[45.411,33.978],[45.408,33.977]]]}},{"type":"Feature","properties":{"name":"گلستان","osm_id":269903},"geometry":{"type":"Polygon","coordinates":[[[53.66,37.339],[53.73,37.093],[53.862,37.093],[53.862,36.9],[53.96,36.897],[53.862,36.886],[53.869,36.674],[53.965,36.675],[54.15,36.617],[54.155,36.506],[54.544,36.518],[54.657,36.623],[54.823,36.61],[55.001,36.764],[55.401,36.817],[55.56,36.925],[55.621,37.099],[55.721,37.2],[55.745,37.285],[55.995,37.366],[56.07,37.607],[56.226,37.81],[56.232,37.864],[56.294,37.873],[56.356,37.936],[56.368,38.021],[56.289,38.085],[55.962,38.078],[55.806,38.123],[55.443,38.086],[55.202,37.947],[55.128,37.949],[55.023,37.843],[54.84,37.746],[54.783,37.634],[54.819,37.6],[54.799,37.522],[54.674,37.437],[54.587,37.46],[54.398,37.361],[54.285,37.352],[54.245,37.32],[53.848,37.356],[53.66,37.343],[53.66,37.339]]]}},{"type":"Feature","properties":{"name":"گیلان","osm_id":241472},"geometry":{"type":"Polygon","coordinates":[[[48.536,37.903],[48.56,37.899],[48.568,37.803],[48.644,37.775],[48.598,37.701],[48.612,37.652],[48.685,37.597],[48.69,37.51],[48.875,37.293],[48.931,37.152],[49.124,37.091],[49.276,36.815],[49.5,36.601],[49.67,36.603],[49.737,36.557],[49.83,36.55],[49.883,36.557],[49.919,36.627],[50.052,36.609],[50.078,36.679],[50.266,36.684],[50.349,36.638],[50.436,36.749],[50.405,36.812],[50.423,36.844],[50.523,36.887],[50.732,37.137],[50.609,37.184],[50.514,37.269],[50.424,37.473],[50.321,37.556],[49.98,37.67],[49.789,37.648],[49.492,37.68],[49.268,37.786],[49.19,37.945],[49.137,38.452],[48.791,38.452],[48.662,38.393],[48.602,38.417],[48.582,38.46],[48.574,38.361],[48.626,38.301],[48.674,38.31],[48.708,38.213],[48.639,38.053],[48.587,38.017],[48.591,37.942],[48.538,37.913],[48.536,37.903]]]}},{"type":"Feature","properties":{"name":"لرستان","osm_id":229893},"geometry":{"type":"Polygon","coordinates":[[[46.838,33.568],[46.861,33.516],[47.026,33.421],[47.009,33.387],[47.147,33.338],[47.232,33.248],[47.4,33.198],[47.592,33.045],[47.934,32.9],[48.013,32.79],[47.91,32.721],[47.982,32.653],[48.09,32.692],[48.049,32.805],[48.121,32.831],[48.128,32.913],[48.18,32.901],[48.28,32.997],[48.39,32.965],[48.54,32.982],[48.621,32.938],[48.641,32.955],[48.716,32.891],[48.769,32.923],[48.765,32.968],[48.9,32.885],[49.006,32.915],[49.218,32.852],[49.367,32.845],[49.51,32.702],[49.575,32.717],[49.6,32.79],[49.66,32.779],[49.745,32.825],[49.747,32.858],[49.682,32.899],[49.641,32.978],[49.708,32.982],[49.655,33.007],[49.669,33.05],[49.722,33.084],[49.837,33.05],[49.915,33.066],[49.871,33.191],[49.947,33.23],[50.02,33.364],[49.807,33.438],[49.762,33.526],[49.584,33.638],[49.633,33.739],[49.516,33.687],[49.387,33.729],[49.356,33.657],[49.296,33.65],[49.284,33.604],[49.216,33.613],[49.195,33.686],[49.142,33.722],[49.017,33.699],[48.976,33.84],[49.012,33.906],[48.956,33.922],[48.969,33.96],[49.078,34.015],[48.948,34.003],[48.916,34.029],[48.852,34.003],[48.718,34.124],[48.709,34.092],[48.617,34.096],[48.586,34.064],[48.527,34.107],[48.483,34.01],[48.352,34.007],[48.305,34.021],[48.304,34.057],[48.241,34.049],[48.177,34.086],[48.054,34.213],[47.9,34.239],[47.828,34.324],[47.701,34.378],[47.679,34.356],[47.694,34.276],[47.565,34.182],[47.512,34.187],[47.534,34.163],[47.504,34.095],[47.427,34.084],[47.499,33.976],[47.476,33.946],[47.505,33.826],[47.4,33.737],[47.255,33.749],[47.156,33.706],[47.069,33.712],[47.021,33.631],[47.036,33.585],[46.882,33.621],[46.846,33.611],[46.865,33.579],[46.838,33.569],[46.838,33.568]]]}},{"type":"Feature","properties":{"name":"مازندران","osm_id":269900},"geometry":{"type":"Polygon","coordinates":[[[50.334,36.638],[50.437,36.565],[50.64,36.524],[50.999,36.249],[51.249,36.21],[51.249,36.173],[51.331,36.154],[51.432,36.16],[51.524,36.079],[51.553,36.102],[51.715,36.033],[51.882,35.857],[52.097,35.761],[52.241,35.771],[52.479,35.93],[52.518,35.911],[52.646,35.936],[52.7,35.859],[52.855,35.894],[52.888,35.844],[52.967,35.818],[53.069,35.846],[53.103,35.862],[53.068,35.882],[53.1,35.916],[53.237,35.908],[53.245,35.991],[53.359,36.057],[53.64,36.089],[53.786,36.149],[53.97,36.283],[53.883,36.363],[53.913,36.403],[54.005,36.403],[54.061,36.469],[54.173,36.505],[54.151,36.509],[54.15,36.617],[53.865,36.679],[53.862,36.886],[53.96,36.897],[53.862,36.9],[53.862,37.093],[53.208,37.044],[51.916,36.772],[51.128,36.935],[50.732,37.137],[50.523,36.887],[50.423,36.844],[50.413,36.687],[50.338,36.637],[50.334,36.638]]]}},{"type":"Feature","properties":{"name":"مرکزی","osm_id":229958},"geometry":{"type":"Polygon","coordinates":[[[48.95,34.39],[49.007,34.384],[49.021,34.31],[49.122,34.249],[49.094,34.163],[49.175,34.112],[49.042,33.976],[48.962,33.95],[48.959,33.908],[49.012,33.906],[48.976,33.84],[49.017,33.699],[49.142,33.722],[49.195,33.686],[49.216,33.613],[49.284,33.604],[49.296,33.65],[49.356,33.657],[49.387,33.729],[49.516,33.687],[49.633,33.739],[49.584,33.638],[49.762,33.526],[49.807,33.438],[49.935,33.385],[49.99,33.42],[49.984,33.492],[50.192,33.531],[50.233,33.603],[50.273,33.582],[50.454,33.635],[50.563,33.628],[50.701,33.726],[50.974,33.748],[51.05,33.82],[51.026,33.96],[51.054,34.028],[50.928,34.159],[50.677,34.238],[50.517,34.19],[50.442,34.201],[50.335,34.442],[50.148,34.473],[50.157,34.509],[50.086,34.584],[50.122,34.756],[50.167,34.82],[50.268,34.814],[50.341,34.76],[50.409,34.752],[50.489,34.86],[50.705,34.868],[50.654,35.018],[50.847,35.171],[50.856,35.253],[50.965,35.394],[50.966,35.442],[50.892,35.485],[50.756,35.488],[50.532,35.571],[50.004,35.504],[49.88,35.547],[49.801,35.508],[49.686,35.529],[49.684,35.449],[49.473,35.393],[49.375,35.263],[49.466,35.179],[49.445,35.087],[49.411,35.034],[49.306,35.085],[49.26,35.042],[49.289,35.006],[49.414,35.002],[49.39,34.917],[49.304,34.912],[49.212,34.842],[49.163,34.861],[49.103,34.754],[49.135,34.614],[49.081,34.585],[49.06,34.635],[49.001,34.597],[49.055,34.505],[49.004,34.466],[49.004,34.424],[48.951,34.399],[48.95,34.39]]]}},{"type":"Feature","properties":{"name":"هرمزگان","osm_id":3385992},"geometry":{"type":"Polygon","coordinates":[[[52.482,26.989],[53.108,26.615],[53.964,26.294],[54.224,26.058],[54.27,25.981],[54.291,25.823],[54.381,25.729],[54.516,25.693],[54.652,25.713],[54.759,25.792],[54.809,25.9],[54.855,25.754],[55.021,25.673],[55.151,25.7],[55.255,25.816],[55.252,25.95],[55.15,26.058],[55.42,26.079],[55.518,26.167],[55.543,26.284],[55.932,26.418],[56.134,26.503],[56.242,26.59],[56.561,26.709],[56.669,26.909],[56.844,26.652],[56.848,26.318],[56.961,26.11],[56.992,25.94],[57.068,25.849],[57.092,25.719],[57.172,25.627],[57.685,25.447],[58.04,25.36],[59.219,25.199],[59.21,25.558],[59.235,25.639],[59.146,25.808],[59.069,25.897],[59.004,25.92],[59.024,25.975],[59.076,25.991],[58.993,26.076],[59.021,26.195],[58.817,26.243],[58.881,26.354],[58.5,26.686],[58.459,26.653],[58.327,26.73],[58.137,26.776],[57.914,26.924],[57.515,27.089],[57.477,27.267],[57.331,27.406],[57.34,27.566],[57.238,27.588],[57.222,27.62],[57.283,27.667],[57.283,27.716],[57.356,27.704],[57.401,27.776],[57.476,27.794],[57.299,27.963],[57.222,27.888],[57.144,27.939],[57.022,27.925],[57.015,28.18],[56.978,28.275],[56.711,28.269],[56.627,28.157],[56.505,28.133],[56.327,28.158],[56.158,28.228],[56.058,28.389],[56.01,28.39],[55.993,28.509],[55.911,28.531],[55.923,28.558],[56.06,28.584],[56.043,28.789],[55.733,28.659],[55.501,28.75],[55.269,28.751],[55.253,28.714],[55.386,28.633],[55.455,28.54],[55.408,28.457],[55.419,28.126],[55.382,28.027],[55.481,27.981],[55.679,27.969],[55.677,27.907],[55.733,27.829],[55.568,27.799],[55.482,27.713],[55.403,27.686],[55.229,27.417],[54.882,27.431],[54.719,27.474],[54.414,27.451],[54.266,27.47],[53.895,27.284],[53.882,27.239],[53.964,27.146],[53.81,27.068],[53.581,27.14],[53.537,27.092],[53.416,27.107],[53.338,27.208],[52.913,27.373],[52.901,27.318],[52.811,27.328],[52.738,27.274],[52.482,26.989]]]}},{"type":"Feature","properties":{"name":"همدان","osm_id":241038},"geometry":{"type":"Polygon","coordinates":[[[47.797,34.851],[47.865,34.722],[47.866,34.633],[47.999,34.587],[48.047,34.623],[48.101,34.53],[48.086,34.418],[48.044,34.39],[47.989,34.401],[47.994,34.365],[47.888,34.262],[47.9,34.239],[48.054,34.213],[48.187,34.08],[48.304,34.057],[48.305,34.021],[48.379,34.001],[48.483,34.01],[48.527,34.107],[48.586,34.064],[48.617,34.096],[48.709,34.092],[48.718,34.124],[48.854,34.002],[48.916,34.029],[48.948,34.003],[49.081,34.015],[49.175,34.112],[49.094,34.163],[49.122,34.249],[49.021,34.31],[49.007,34.384],[48.95,34.389],[49.055,34.505],[49.001,34.597],[49.06,34.635],[49.081,34.585],[49.135,34.614],[49.103,34.754],[49.168,34.866],[49.212,34.842],[49.304,34.912],[49.39,34.917],[49.414,35.002],[49.283,35.008],[49.261,35.052],[49.306,35.085],[49.416,35.038],[49.468,35.17],[49.375,35.263],[49.473,35.394],[49.4,35.445],[49.161,35.493],[49.048,35.628],[48.78,35.734],[48.735,35.723],[48.747,35.647],[48.573,35.578],[48.496,35.599],[48.472,35.65],[48.392,35.643],[48.265,35.697],[48.006,35.644],[47.976,35.595],[47.894,35.578],[47.878,35.533],[47.945,35.39],[48.027,35.371],[48.096,35.228],[48.14,35.222],[48.181,35.165],[48.153,35.118],[48.192,35.093],[48.176,34.999],[48.086,34.962],[48.043,34.986],[47.953,34.971],[47.909,34.888],[47.809,34.856],[47.797,34.851]]]}},{"type":"Feature","properties":{"name":"یزد","osm_id":3300249},"geometry":{"type":"Polygon","coordinates":[[[52.8,31.493],[52.969,31.362],[52.956,31.251],[52.832,31.191],[52.912,31.121],[52.943,31.012],[53.364,30.833],[53.471,30.732],[53.735,30.689],[53.862,30.63],[53.926,30.487],[53.937,30.378],[53.919,30.223],[53.88,30.225],[53.914,30.203],[53.904,30.162],[53.87,30.166],[53.93,30.059],[54.117,29.969],[54.097,29.789],[54.207,29.632],[54.266,29.6],[54.491,29.635],[54.588,29.613],[54.53,30.259],[54.433,30.312],[54.37,30.393],[54.563,30.597],[54.527,31.018],[54.712,31.066],[54.946,31.028],[55.4,31.152],[55.846,31.325],[55.935,31.373],[56.013,31.465],[56.035,31.57],[56.121,31.591],[56.161,31.553],[56.249,31.559],[56.269,31.592],[56.57,31.698],[56.597,32.0],[56.655,32.081],[56.221,32.594],[55.972,32.74],[55.808,32.787],[55.405,33.382],[55.223,33.324],[54.992,33.126],[54.878,33.172],[54.774,33.082],[54.736,32.957],[54.606,32.968],[54.315,32.92],[53.45,32.602],[53.303,32.654],[53.25,32.642],[53.191,32.522],[53.034,32.536],[53.012,32.514],[53.051,32.005],[53.0,31.867],[53.041,31.747],[53.14,31.68],[53.204,31.59],[52.998,31.496],[52.801,31.494],[52.8,31.493]]]}},{"type":"Feature","properties":{"name":"کهگیلویه و بویراحمد","osm_id":241478},"geometry":{"type":"Polygon","coordinates":[[[49.886,30.964],[49.951,30.929],[49.956,30.877],[50.033,30.871],[50.07,30.83],[50.21,30.932],[50.254,30.756],[50.335,30.709],[50.393,30.731],[50.424,30.665],[50.534,30.6],[50.55,30.563],[50.506,30.531],[50.386,30.524],[50.521,30.39],[50.514,30.166],[50.577,30.125],[50.528,30.02],[50.574,29.925],[50.687,29.996],[50.847,29.966],[50.956,30.156],[51.178,30.206],[51.269,30.28],[51.238,30.336],[51.289,30.389],[51.136,30.596],[51.193,30.674],[51.372,30.555],[51.355,30.506],[51.392,30.468],[51.575,30.422],[51.619,30.444],[51.751,30.361],[51.837,30.454],[51.834,30.519],[51.888,30.591],[51.798,30.693],[51.811,30.714],[51.698,30.739],[51.397,30.973],[51.349,31.027],[51.336,31.179],[51.304,31.207],[51.18,31.21],[51.153,31.15],[51.031,31.182],[50.925,31.298],[50.789,31.314],[50.64,31.428],[50.574,31.409],[50.5,31.453],[50.384,31.419],[50.319,31.457],[50.261,31.424],[50.265,31.453],[50.251,31.427],[50.3,31.358],[50.247,31.306],[50.153,31.252],[49.955,31.211],[49.99,31.126],[49.948,31.075],[49.971,31.013],[49.886,30.964]]]}}]}