{"type":"FeatureCollection","features":[{"type":"Feature","properties":{"district":1,"name":"منطقه ۱","osm_id":6728830},"geometry":{"type":"Polygon","coordinates":[[[51.37518,35.80648],[51.38044,35.804],[51.38606,35.7998],[51.3872,35.79664],[51.38511,35.79264],[51.38991,35.79235],[51.39225,35.78977],[51.40238,35.79381],[51.40681,35.79194],[51.41692,35.79075],[51.42009,35.78898],[51.42782,35.77851],[51.43164,35.77999],[51.43642,35.78405],[51.44819,35.7871],[51.4608,35.7932],[51.4741,35.79028],[51.48061,35.7902],[51.49175,35.78568],[51.50025,35.78616],[51.51348,35.78243],[51.52172,35.77759],[51.52727,35.7773],[51.52846,35.78709],[51.53028,35.79188],[51.53828,35.79237],[51.53828,35.79396],[51.53541,35.79376],[51.53508,35.79466],[51.53612,35.79585],[51.53764,35.79519],[51.5392,35.79599],[51.53779,35.7974],[51.53837,35.79866],[51.5367,35.79951],[51.53636,35.80519],[51.53757,35.80542],[51.53705,35.80805],[51.53854,35.80974],[51.53302,35.8091],[51.53163,35.81188],[51.53172,35.81258],[51.53303,35.81218],[51.53345,35.81336],[51.53274,35.8139],[51.53439,35.81593],[51.53035,35.81557],[51.52404,35.80889],[51.52061,35.81081],[51.52106,35.81256],[51.51614,35.81183],[51.51485,35.81395],[51.51184,35.81396],[51.50983,35.81547],[51.50822,35.81876],[51.50641,35.81694],[51.50742,35.81545],[51.50563,35.81463],[51.50466,35.81567],[51.50158,35.81619],[51.49862,35.81469],[51.49752,35.81724],[51.49608,35.81712],[51.49168,35.82123],[51.49148,35.82298],[51.48874,35.8202],[51.48797,35.82046],[51.48774,35.81914],[51.48424,35.81875],[51.47804,35.82143],[51.47265,35.82127],[51.46895,35.82375],[51.4678,35.82733],[51.46442,35.82733],[51.46327,35.82847],[51.46187,35.82649],[51.46419,35.82607],[51.46303,35.82323],[51.45816,35.82262],[51.45681,35.82036],[51.45114,35.81862],[51.45084,35.81721],[51.44839,35.81723],[51.44864,35.81816],[51.44747,35.81803],[51.44685,35.81913],[51.43777,35.82024],[51.43576,35.82132],[51.43631,35.82375],[51.43505,35.82463],[51.43156,35.8225],[51.42765,35.8252],[51.42752,35.8266],[51.42608,35.82753],[51.42543,35.82567],[51.42354,35.82477],[51.42393,35.82074],[51.42262,35.82035],[51.42125,35.82136],[51.41775,35.81647],[51.41306,35.81754],[51.41215,35.81626],[51.40623,35.81522],[51.40388,35.81703],[51.40229,35.81358],[51.39284,35.81302],[51.38805,35.81081],[51.38765,35.8085],[51.38627,35.80824],[51.38476,35.80826],[51.38386,35.81145],[51.38213,35.81257],[51.38218,35.81067],[51.37575,35.80669],[51.37518,35.80648]]]}},{"type":"Feature","properties":{"district":2,"name":"منطقه ۲","osm_id":6728896},"geometry":{"type":"Polygon","coordinates":[[[51.33178,35.75038],[51.33781,35.70204],[51.34004,35.70152],[51.34152,35.6998],[51.37811,35.70066],[51.37837,35.71922],[51.38321,35.7286],[51.38376,35.74238],[51.38593,35.74785],[51.3864,35.75499],[51.3886,35.7601],[51.38751,35.77063],[51.39314,35.78116],[51.39156,35.79111],[51.38888,35.7927],[51.38511,35.79264],[51.3872,35.79664],[51.38617,35.79884],[51.38536,35.79647],[51.384,35.79558],[51.38461,35.79467],[51.3839,35.79373],[51.37958,35.7928],[51.37883,35.79426],[51.3756,35.79286],[51.37296,35.79523],[51.37167,35.79463],[51.36905,35.7956],[51.36343,35.79982],[51.36134,35.80375],[51.35923,35.80294],[51.35932,35.79974],[51.35736,35.79679],[51.3545,35.79488],[51.35066,35.79481],[51.34851,35.79317],[51.34462,35.79302],[51.34643,35.79524],[51.34437,35.795],[51.34433,35.79625],[51.34336,35.7966],[51.34241,35.7961],[51.3429,35.79858],[51.34174,35.79868],[51.34023,35.79126],[51.34162,35.7833],[51.34021,35.78011],[51.33589,35.77837],[51.33735,35.76581],[51.33183,35.75082],[51.33178,35.75038]]]}},{"type":"Feature","properties":{"district":3,"name":"منطقه ۳","osm_id":6728897},"geometry":{"type":"Polygon","coordinates":[[[51.38608,35.75031],[51.41623,35.75203],[51.4213,35.74965],[51.42241,35.74693],[51.4227,35.74024],[51.43125,35.74061],[51.4371,35.74269],[51.44689,35.74195],[51.44945,35.74734],[51.44889,35.75193],[51.45231,35.75387],[51.45604,35.76584],[51.46657,35.77806],[51.47037,35.78594],[51.47312,35.78692],[51.47643,35.79021],[51.463,35.793],[51.45941,35.79296],[51.44819,35.7871],[51.43642,35.78405],[51.43164,35.77999],[51.42782,35.77851],[51.42009,35.78898],[51.41772,35.79048],[51.40681,35.79194],[51.40238,35.79381],[51.39367,35.79087],[51.39187,35.78862],[51.39301,35.78018],[51.38751,35.77063],[51.3886,35.7601],[51.3864,35.75499],[51.38612,35.75122],[51.38608,35.75031]]]}},{"type":"Feature","properties":{"district":4,"name":"منطقه ۴","osm_id":6728863},"geometry":{"type":"Polygon","coordinates":[[[51.44689,35.74195],[51.46071,35.74126],[51.49192,35.73609],[51.53556,35.73034],[51.53789,35.72871],[51.53859,35.7249],[51.55831,35.72623],[51.57097,35.72429],[51.58341,35.72371],[51.58623,35.72433],[51.588,35.72353],[51.5883,35.72626],[51.60156,35.73596],[51.6063,35.74403],[51.5941,35.74822],[51.58662,35.74892],[51.57955,35.75212],[51.57443,35.75856],[51.55725,35.77012],[51.53755,35.77655],[51.52172,35.77759],[51.51348,35.78243],[51.50958,35.78366],[51.50025,35.78616],[51.49175,35.78568],[51.47891,35.79047],[51.47643,35.79021],[51.47312,35.78692],[51.47037,35.78594],[51.46657,35.77806],[51.45604,35.76584],[51.45231,35.75387],[51.44889,35.75193],[51.44945,35.74734],[51.44703,35.74252],[51.44689,35.74195]]]}},{"type":"Feature","properties":{"district":5,"name":"منطقه ۵","osm_id":6729507},"geometry":{"type":"Polygon","coordinates":[[[51.26203,35.78209],[51.26398,35.77653],[51.26262,35.77075],[51.26322,35.76827],[51.26664,35.76347],[51.26678,35.76073],[51.26856,35.75733],[51.2651,35.74311],[51.2663,35.74274],[51.26784,35.73931],[51.26911,35.7396],[51.27546,35.73359],[51.28061,35.73077],[51.29076,35.71739],[51.29149,35.70797],[51.29027,35.7069],[51.28996,35.70092],[51.30055,35.69897],[51.31204,35.69909],[51.3116,35.69668],[51.31219,35.69909],[51.33434,35.69966],[51.33515,35.7013],[51.33781,35.70204],[51.33178,35.75038],[51.33735,35.76581],[51.33589,35.77837],[51.34021,35.78011],[51.34162,35.7833],[51.34023,35.79126],[51.34158,35.7959],[51.34096,35.79684],[51.34191,35.7995],[51.34166,35.80287],[51.34059,35.80704],[51.33828,35.81003],[51.3372,35.8085],[51.33794,35.80491],[51.33713,35.80386],[51.33841,35.80243],[51.33562,35.79857],[51.33714,35.79808],[51.33586,35.79354],[51.33268,35.7919],[51.32865,35.79417],[51.32847,35.79348],[51.32691,35.79405],[51.32722,35.79283],[51.32651,35.79352],[51.32607,35.79269],[51.32477,35.79283],[51.32453,35.79102],[51.32302,35.79099],[51.322,35.7894],[51.32247,35.78821],[51.31957,35.78793],[51.31821,35.7889],[51.31712,35.78743],[51.31448,35.78834],[51.3131,35.78685],[51.30937,35.78785],[51.30827,35.78715],[51.30868,35.78534],[51.30703,35.78597],[51.30608,35.78532],[51.30287,35.78851],[51.30275,35.79033],[51.30202,35.78888],[51.30401,35.78261],[51.30067,35.77956],[51.29476,35.7787],[51.29553,35.78122],[51.29339,35.78157],[51.29334,35.78354],[51.28975,35.78472],[51.29135,35.78027],[51.28961,35.78157],[51.28934,35.78001],[51.28803,35.78058],[51.28713,35.77944],[51.2858,35.7801],[51.28578,35.78186],[51.28391,35.7808],[51.28084,35.78075],[51.28033,35.78319],[51.27925,35.78293],[51.27828,35.78468],[51.27704,35.78122],[51.27386,35.77956],[51.27282,35.77972],[51.27399,35.78103],[51.27267,35.78256],[51.2692,35.78252],[51.26795,35.78387],[51.26574,35.78264],[51.26211,35.78229],[51.26203,35.78209]]]}},{"type":"Feature","properties":{"district":6,"name":"منطقه ۶","osm_id":6729037},"geometry":{"type":"Polygon","coordinates":[[[51.37761,35.7056],[51.37811,35.70066],[51.42603,35.70167],[51.42549,35.71115],[51.4275,35.71897],[51.4241,35.7265],[51.42035,35.73164],[51.42277,35.74155],[51.42241,35.74693],[51.4213,35.74965],[51.41522,35.75217],[51.38608,35.75031],[51.38561,35.74639],[51.38376,35.74238],[51.38321,35.7286],[51.37837,35.71922],[51.37781,35.70653],[51.37761,35.7056]]]}},{"type":"Feature","properties":{"district":7,"name":"منطقه ۷","osm_id":6729036},"geometry":{"type":"Polygon","coordinates":[[[51.42035,35.73164],[51.4241,35.7265],[51.4275,35.71897],[51.42549,35.71115],[51.42603,35.70167],[51.4481,35.70199],[51.47229,35.70903],[51.46654,35.71515],[51.45892,35.72718],[51.45923,35.73099],[51.46685,35.74035],[51.43633,35.74261],[51.43125,35.74061],[51.4227,35.74024],[51.42049,35.73276],[51.42035,35.73164]]]}},{"type":"Feature","properties":{"district":8,"name":"منطقه ۸","osm_id":6729035},"geometry":{"type":"Polygon","coordinates":[[[51.45887,35.72893],[51.45892,35.72718],[51.46421,35.7184],[51.47229,35.70903],[51.51858,35.72332],[51.53859,35.7249],[51.53789,35.72871],[51.53556,35.73034],[51.49192,35.73609],[51.46685,35.74035],[51.45923,35.73099],[51.45893,35.72946],[51.45887,35.72893]]]}},{"type":"Feature","properties":{"district":9,"name":"منطقه ۹","osm_id":6729508},"geometry":{"type":"Polygon","coordinates":[[[51.27871,35.67664],[51.30902,35.6756],[51.30892,35.67224],[51.30976,35.67199],[51.33963,35.66666],[51.34382,35.66668],[51.35246,35.67066],[51.35494,35.67613],[51.35426,35.6832],[51.3565,35.69432],[51.35527,35.69609],[51.35505,35.70013],[51.34152,35.6998],[51.34004,35.70152],[51.33781,35.70204],[51.33515,35.7013],[51.33434,35.69966],[51.31219,35.69909],[51.3116,35.69668],[51.31204,35.69909],[51.30055,35.69897],[51.28996,35.70092],[51.28952,35.69417],[51.2875,35.68794],[51.28375,35.68462],[51.27875,35.67791],[51.27871,35.67664]]]}},{"type":"Feature","properties":{"district":10,"name":"منطقه ۱۰","osm_id":6729501},"geometry":{"type":"Polygon","coordinates":[[[51.35221,35.67104],[51.3575,35.66904],[51.36889,35.66701],[51.38154,35.67085],[51.37811,35.70066],[51.35505,35.70013],[51.35527,35.69609],[51.3565,35.69432],[51.35426,35.6832],[51.35494,35.67613],[51.35228,35.67122],[51.35221,35.67104]]]}},{"type":"Feature","properties":{"district":11,"name":"منطقه ۱۱","osm_id":6729111},"geometry":{"type":"Polygon","coordinates":[[[51.37811,35.70066],[51.38219,35.65949],[51.4049,35.65843],[51.41287,35.70139],[51.38313,35.70076],[51.37811,35.70066]]]}},{"type":"Feature","properties":{"district":12,"name":"منطقه ۱۲","osm_id":6729112},"geometry":{"type":"Polygon","coordinates":[[[51.4049,35.65843],[51.43509,35.65956],[51.44515,35.66085],[51.4481,35.70199],[51.41287,35.70139],[51.40558,35.66225],[51.4049,35.65843]]]}},{"type":"Feature","properties":{"district":13,"name":"منطقه ۱۳","osm_id":6729034},"geometry":{"type":"Polygon","coordinates":[[[51.44733,35.68966],[51.49494,35.69292],[51.50174,35.70147],[51.50559,35.70243],[51.51283,35.70647],[51.51109,35.71285],[51.51215,35.71673],[51.51358,35.71838],[51.51812,35.71851],[51.52511,35.71716],[51.52551,35.71558],[51.52707,35.71469],[51.5361,35.71481],[51.53939,35.71373],[51.54119,35.7139],[51.54333,35.716],[51.54559,35.71553],[51.54562,35.71755],[51.54895,35.71711],[51.54891,35.71813],[51.55044,35.7181],[51.55519,35.717],[51.55909,35.71479],[51.56317,35.71453],[51.56785,35.71121],[51.56967,35.71113],[51.56944,35.71342],[51.56423,35.71511],[51.56787,35.71609],[51.56837,35.71543],[51.57272,35.71552],[51.57265,35.71724],[51.57482,35.71649],[51.57496,35.71718],[51.57819,35.7165],[51.57901,35.71719],[51.58117,35.71588],[51.58294,35.71724],[51.58736,35.71685],[51.59312,35.71903],[51.59813,35.71933],[51.5989,35.71975],[51.5986,35.72394],[51.57674,35.7238],[51.55831,35.72623],[51.51858,35.72332],[51.4481,35.70199],[51.44751,35.69159],[51.44733,35.68966]]]}},{"type":"Feature","properties":{"district":14,"name":"منطقه ۱۴","osm_id":6729033},"geometry":{"type":"Polygon","coordinates":[[[51.44561,35.66541],[51.4502,35.66483],[51.45684,35.66035],[51.46144,35.65859],[51.4662,35.65973],[51.48821,35.65629],[51.49072,35.66286],[51.50188,35.66032],[51.49712,35.64653],[51.49998,35.64478],[51.50759,35.64416],[51.51461,35.6506],[51.5181,35.66278],[51.52325,35.66913],[51.514,35.67304],[51.51906,35.67706],[51.50557,35.69111],[51.49333,35.69296],[51.44733,35.68966],[51.44588,35.66855],[51.44561,35.66541]]]}},{"type":"Feature","properties":{"district":15,"name":"منطقه ۱۵","osm_id":6729032},"geometry":{"type":"Polygon","coordinates":[[[51.431,35.65934],[51.43345,35.65091],[51.43635,35.62747],[51.4443,35.62929],[51.45247,35.62951],[51.47122,35.61736],[51.47287,35.61799],[51.47772,35.61254],[51.48022,35.61396],[51.49298,35.60798],[51.49392,35.60863],[51.49841,35.60574],[51.50223,35.60756],[51.50284,35.60866],[51.49886,35.61218],[51.49962,35.61293],[51.4985,35.61402],[51.50135,35.61574],[51.50356,35.61316],[51.50437,35.61426],[51.50323,35.61967],[51.50731,35.62792],[51.50805,35.63392],[51.51223,35.63436],[51.51122,35.63718],[51.50788,35.63791],[51.50199,35.63711],[51.50109,35.64086],[51.50163,35.64456],[51.49712,35.64653],[51.50188,35.66032],[51.49072,35.66286],[51.48821,35.65629],[51.4662,35.65973],[51.46144,35.65859],[51.45684,35.66035],[51.4502,35.66483],[51.44561,35.66541],[51.44496,35.66076],[51.43111,35.65953],[51.431,35.65934]]]}},{"type":"Feature","properties":{"district":16,"name":"منطقه ۱۶","osm_id":6729110},"geometry":{"type":"Polygon","coordinates":[[[51.3821,35.65538],[51.38284,35.65363],[51.38883,35.64993],[51.39356,35.64502],[51.39102,35.63947],[51.39341,35.6379],[51.39291,35.63754],[51.40471,35.61989],[51.40326,35.61443],[51.41671,35.61588],[51.42992,35.62468],[51.43635,35.62747],[51.43345,35.65091],[51.431,35.65934],[51.40945,35.65809],[51.39373,35.65951],[51.3931,35.65842],[51.38219,35.65949],[51.38221,35.65679],[51.3821,35.65538]]]}},{"type":"Feature","properties":{"district":17,"name":"منطقه ۱۷","osm_id":6729502},"geometry":{"type":"Polygon","coordinates":[[[51.34387,35.66436],[51.35398,35.63931],[51.35656,35.63666],[51.36368,35.64024],[51.36884,35.64431],[51.37197,35.65038],[51.37427,35.6527],[51.3821,35.65538],[51.38154,35.67085],[51.36889,35.66701],[51.35246,35.67066],[51.34467,35.667],[51.34395,35.66476],[51.34387,35.66436]]]}},{"type":"Feature","properties":{"district":18,"name":"منطقه ۱۸","osm_id":6729503},"geometry":{"type":"Polygon","coordinates":[[[51.23045,35.67686],[51.23099,35.67234],[51.2327,35.66863],[51.23929,35.66263],[51.27939,35.64723],[51.29902,35.63805],[51.31642,35.62887],[51.32484,35.6201],[51.33515,35.62769],[51.35176,35.63579],[51.35656,35.63666],[51.35444,35.63832],[51.34529,35.66025],[51.34387,35.66436],[51.34467,35.667],[51.34123,35.66643],[51.30976,35.67199],[51.30892,35.67224],[51.30902,35.6756],[51.26973,35.67723],[51.23814,35.68204],[51.23335,35.68357],[51.23046,35.67757],[51.23045,35.67686]]]}},{"type":"Feature","properties":{"district":19,"name":"منطقه ۱۹","osm_id":6729109},"geometry":{"type":"Polygon","coordinates":[[[51.32484,35.6201],[51.33438,35.61049],[51.34058,35.60812],[51.34781,35.60743],[51.35657,35.60883],[51.37303,35.61362],[51.40326,35.61443],[51.40471,35.61989],[51.39291,35.63754],[51.39341,35.6379],[51.39102,35.63947],[51.39356,35.64502],[51.38883,35.64993],[51.38284,35.65363],[51.3821,35.65538],[51.37364,35.65219],[51.36957,35.64512],[51.36368,35.64024],[51.35607,35.63645],[51.34807,35.63418],[51.33515,35.62769],[51.32605,35.62078],[51.32484,35.6201]]]}},{"type":"Feature","properties":{"district":20,"name":"منطقه ۲۰","osm_id":6729031},"geometry":{"type":"Polygon","coordinates":[[[51.40025,35.61411],[51.40457,35.61094],[51.40742,35.61074],[51.40575,35.60518],[51.40802,35.60427],[51.40764,35.60316],[51.41019,35.60289],[51.41551,35.59216],[51.41702,35.5911],[51.41739,35.58321],[51.41623,35.58295],[51.41784,35.57832],[51.41745,35.57548],[51.41954,35.57385],[51.4203,35.57131],[51.42667,35.57276],[51.42547,35.57844],[51.42703,35.58023],[51.42844,35.58026],[51.42719,35.58145],[51.42757,35.5823],[51.43057,35.58243],[51.43721,35.5802],[51.44717,35.58098],[51.45056,35.58235],[51.4513,35.58002],[51.45062,35.57839],[51.44899,35.57928],[51.44858,35.57741],[51.45104,35.57721],[51.45649,35.57907],[51.461,35.57375],[51.46447,35.57239],[51.46663,35.56821],[51.47195,35.56913],[51.4663,35.57702],[51.455,35.59767],[51.45662,35.61021],[51.46886,35.61457],[51.47122,35.61736],[51.46027,35.62511],[51.45247,35.62951],[51.44235,35.62896],[51.42992,35.62468],[51.41671,35.61588],[51.40326,35.61443],[51.40025,35.61411]]]}},{"type":"Feature","properties":{"district":21,"name":"منطقه ۲۱","osm_id":6729505},"geometry":{"type":"Polygon","coordinates":[[[51.08922,35.74293],[51.11366,35.73751],[51.1226,35.73358],[51.13256,35.7227],[51.14013,35.71697],[51.14752,35.71368],[51.16255,35.70838],[51.18345,35.70312],[51.22768,35.68546],[51.2278,35.68458],[51.23814,35.68204],[51.27871,35.67664],[51.28017,35.68045],[51.28716,35.68732],[51.28952,35.69417],[51.29027,35.7069],[51.29149,35.70797],[51.29115,35.71637],[51.25093,35.71454],[51.23361,35.71741],[51.21849,35.7186],[51.20331,35.72217],[51.15362,35.74192],[51.14543,35.74433],[51.13445,35.74472],[51.11644,35.7419],[51.0969,35.74405],[51.09015,35.74564],[51.08922,35.74293]]]}},{"type":"Feature","properties":{"district":22,"name":"منطقه ۲۲","osm_id":6729506},"geometry":{"type":"Polygon","coordinates":[[[51.09015,35.74564],[51.0969,35.74405],[51.11644,35.7419],[51.13445,35.74472],[51.14543,35.74433],[51.15362,35.74192],[51.20331,35.72217],[51.21849,35.7186],[51.23361,35.71741],[51.25093,35.71454],[51.29115,35.71637],[51.28061,35.73077],[51.27546,35.73359],[51.26911,35.7396],[51.26784,35.73931],[51.2663,35.74274],[51.2651,35.74311],[51.26856,35.75733],[51.26678,35.76073],[51.26664,35.76347],[51.26347,35.76746],[51.26262,35.77075],[51.25484,35.76994],[51.25052,35.77038],[51.25044,35.77142],[51.24334,35.76507],[51.24214,35.76588],[51.23861,35.76585],[51.23824,35.76463],[51.23202,35.76252],[51.2143,35.76342],[51.20435,35.76537],[51.20039,35.76402],[51.19047,35.76363],[51.18206,35.76795],[51.17725,35.76806],[51.16559,35.7651],[51.1619,35.7613],[51.15533,35.76111],[51.14071,35.75659],[51.12735,35.75369],[51.11968,35.75483],[51.1144,35.75282],[51.11006,35.7523],[51.11077,35.75143],[51.10958,35.75067],[51.1095,35.75158],[51.10681,35.75128],[51.10687,35.75281],[51.10522,35.75204],[51.10498,35.75428],[51.10394,35.75456],[51.10359,35.75271],[51.10179,35.75152],[51.10152,35.7533],[51.1005,35.75275],[51.09849,35.75404],[51.09893,35.75484],[51.09755,35.75443],[51.09755,35.75627],[51.09675,35.75692],[51.09647,35.75579],[51.09602,35.75718],[51.09419,35.75777],[51.09203,35.74872],[51.09015,35.74564]]]}}]}